[{"OBJECT_NAME":"STARLINK-5125","OBJECT_ID":"2022-125AG","EPOCH":"2025-07-29T04:36:02.218176","MEAN_MOTION":15.08840144,"ECCENTRICITY":0.0001419,"INCLINATION":53.217,"RA_OF_ASC_NODE":137.3245,"ARG_OF_PERICENTER":84.8504,"MEAN_ANOMALY":275.265,"EPHEMERIS_TYPE":0,"CLASSIFICATION_TYPE":"U","NORAD_CAT_ID":53994,"ELEMENT_SET_NO":999,"REV_AT_EPOCH":15579,"BSTAR":5.9756e-6,"MEAN_MOTION_DOT":-1.93e-6,"MEAN_MOTION_DDOT":0},{"OBJECT_NAME":"STARLINK-5097","OBJECT_ID":"2022-125AH","EPOCH":"2025-07-29T01:35:52.182816","MEAN_MOTION":15.08847483,"ECCENTRICITY":0.0001415,"INCLINATION":53.2175,"RA_OF_ASC_NODE":137.9674,"ARG_OF_PERICENTER":86.6193,"MEAN_ANOMALY":273.4961,"EPHEMERIS_TYPE":0,"CLASSIFICATION_TYPE":"U","NORAD_CAT_ID":53995,"ELEMENT_SET_NO":999,"REV_AT_EPOCH":15577,"BSTAR":9.0939e-6,"MEAN_MOTION_DOT":-1.43e-6,"MEAN_MOTION_DDOT":0},{"OBJECT_NAME":"STARLINK-5131","OBJECT_ID":"2022-125AJ","EPOCH":"2025-07-29T04:30:43.619904","MEAN_MOTION":15.08843328,"ECCENTRICITY":0.0001404,"INCLINATION":53.2163,"RA_OF_ASC_NODE":137.2976,"ARG_OF_PERICENTER":99.5713,"MEAN_ANOMALY":260.5438,"EPHEMERIS_TYPE":0,"CLASSIFICATION_TYPE":"U","NORAD_CAT_ID":53996,"ELEMENT_SET_NO":999,"REV_AT_EPOCH":15579,"BSTAR":5.8286e-5,"MEAN_MOTION_DOT":6.4e-6,"MEAN_MOTION_DDOT":0},{"OBJECT_NAME":"STARLINK-5130","OBJECT_ID":"2022-125AK","EPOCH":"2025-07-29T03:44:25.694016","MEAN_MOTION":15.08840165,"ECCENTRICITY":0.0001641,"INCLINATION":53.2178,"RA_OF_ASC_NODE":127.829,"ARG_OF_PERICENTER":90.4838,"MEAN_ANOMALY":269.6342,"EPHEMERIS_TYPE":0,"CLASSIFICATION_TYPE":"U","NORAD_CAT_ID":53997,"ELEMENT_SET_NO":999,"REV_AT_EPOCH":15592,"BSTAR":6.4943e-5,"MEAN_MOTION_DOT":7.46e-6,"MEAN_MOTION_DDOT":0},{"OBJECT_NAME":"STARLINK-5128","OBJECT_ID":"2022-125AL","EPOCH":"2025-07-29T04:20:06.929664","MEAN_MOTION":15.08844155,"ECCENTRICITY":0.0001334,"INCLINATION":53.2165,"RA_OF_ASC_NODE":137.252,"ARG_OF_PERICENTER":90.6086,"MEAN_ANOMALY":269.5059,"EPHEMERIS_TYPE":0,"CLASSIFICATION_TYPE":"U","NORAD_CAT_ID":53998,"ELEMENT_SET_NO":999,"REV_AT_EPOCH":15579,"BSTAR":4.9852e-5,"MEAN_MOTION_DOT":5.06e-6,"MEAN_MOTION_DDOT":0},{"OBJECT_NAME":"STARLINK-5079","OBJECT_ID":"2022-125AM","EPOCH":"2025-07-29T04:41:20.929632","MEAN_MOTION":15.08840403,"ECCENTRICITY":0.0001502,"INCLINATION":53.2172,"RA_OF_ASC_NODE":137.3466,"ARG_OF_PERICENTER":86.8821,"MEAN_ANOMALY":273.2343,"EPHEMERIS_TYPE":0,"CLASSIFICATION_TYPE":"U","NORAD_CAT_ID":53999,"ELEMENT_SET_NO":999,"REV_AT_EPOCH":15579,"BSTAR":3.5185e-5,"MEAN_MOTION_DOT":2.72e-6,"MEAN_MOTION_DDOT":0},{"OBJECT_NAME":"STARLINK-5088","OBJECT_ID":"2022-125AN","EPOCH":"2025-07-29T03:39:07.148448","MEAN_MOTION":15.0884079,"ECCENTRICITY":0.0001238,"INCLINATION":53.2163,"RA_OF_ASC_NODE":127.8057,"ARG_OF_PERICENTER":87.9124,"MEAN_ANOMALY":272.201,"EPHEMERIS_TYPE":0,"CLASSIFICATION_TYPE":"U","NORAD_CAT_ID":54000,"ELEMENT_SET_NO":999,"REV_AT_EPOCH":15592,"BSTAR":4.5133e-5,"MEAN_MOTION_DOT":4.31e-6,"MEAN_MOTION_DDOT":0},{"OBJECT_NAME":"STARLINK-5109","OBJECT_ID":"2022-125AQ","EPOCH":"2025-07-29T12:07:45.739200","MEAN_MOTION":15.08843496,"ECCENTRICITY":0.0001444,"INCLINATION":53.2169,"RA_OF_ASC_NODE":125.7731,"ARG_OF_PERICENTER":92.5828,"MEAN_ANOMALY":267.5329,"EPHEMERIS_TYPE":0,"CLASSIFICATION_TYPE":"U","NORAD_CAT_ID":54002,"ELEMENT_SET_NO":999,"REV_AT_EPOCH":15596,"BSTAR":1.9191e-5,"MEAN_MOTION_DOT":1.8e-7,"MEAN_MOTION_DDOT":0},{"OBJECT_NAME":"STARLINK-5114","OBJECT_ID":"2022-125AR","EPOCH":"2025-07-29T04:25:25.248864","MEAN_MOTION":15.08844925,"ECCENTRICITY":0.000138,"INCLINATION":53.2168,"RA_OF_ASC_NODE":137.273,"ARG_OF_PERICENTER":93.0626,"MEAN_ANOMALY":267.0524,"EPHEMERIS_TYPE":0,"CLASSIFICATION_TYPE":"U","NORAD_CAT_ID":54003,"ELEMENT_SET_NO":999,"REV_AT_EPOCH":15577,"BSTAR":5.0258e-5,"MEAN_MOTION_DOT":5.12e-6,"MEAN_MOTION_DDOT":0},{"OBJECT_NAME":"STARLINK-5129","OBJECT_ID":"2022-125AS","EPOCH":"2025-07-29T04:09:30.102912","MEAN_MOTION":15.08844326,"ECCENTRICITY":0.0001332,"INCLINATION":53.217,"RA_OF_ASC_NODE":137.2053,"ARG_OF_PERICENTER":87.6237,"MEAN_ANOMALY":272.4908,"EPHEMERIS_TYPE":0,"CLASSIFICATION_TYPE":"U","NORAD_CAT_ID":54004,"ELEMENT_SET_NO":999,"REV_AT_EPOCH":15577,"BSTAR":4.707e-5,"MEAN_MOTION_DOT":4.61e-6,"MEAN_MOTION_DDOT":0},{"OBJECT_NAME":"STARLINK-5135","OBJECT_ID":"2022-125AT","EPOCH":"2025-07-29T12:11:43.871424","MEAN_MOTION":15.08849366,"ECCENTRICITY":0.0001307,"INCLINATION":53.2169,"RA_OF_ASC_NODE":135.7406,"ARG_OF_PERICENTER":85.7889,"MEAN_ANOMALY":274.3252,"EPHEMERIS_TYPE":0,"CLASSIFICATION_TYPE":"U","NORAD_CAT_ID":54005,"ELEMENT_SET_NO":999,"REV_AT_EPOCH":15582,"BSTAR":-3.8384e-5,"MEAN_MOTION_DOT":-8.99e-6,"MEAN_MOTION_DDOT":0},{"OBJECT_NAME":"STARLINK-5096","OBJECT_ID":"2022-125AU","EPOCH":"2025-07-29T11:50:30.983424","MEAN_MOTION":15.08839776,"ECCENTRICITY":0.00015,"INCLINATION":53.2173,"RA_OF_ASC_NODE":135.661,"ARG_OF_PERICENTER":88.4103,"MEAN_ANOMALY":271.7061,"EPHEMERIS_TYPE":0,"CLASSIFICATION_TYPE":"U","NORAD_CAT_ID":54006,"ELEMENT_SET_NO":999,"REV_AT_EPOCH":15582,"BSTAR":-6.3341e-6,"MEAN_MOTION_DOT":-3.89e-6,"MEAN_MOTION_DDOT":0},{"OBJECT_NAME":"STARLINK-5132","OBJECT_ID":"2022-125AV","EPOCH":"2025-07-29T12:01:08.459040","MEAN_MOTION":15.08827961,"ECCENTRICITY":0.0001226,"INCLINATION":53.2179,"RA_OF_ASC_NODE":135.6984,"ARG_OF_PERICENTER":89.6374,"MEAN_ANOMALY":270.4759,"EPHEMERIS_TYPE":0,"CLASSIFICATION_TYPE":"U","NORAD_CAT_ID":54007,"ELEMENT_SET_NO":999,"REV_AT_EPOCH":15582,"BSTAR":-0.00011053,"MEAN_MOTION_DOT":-2.046e-5,"MEAN_MOTION_DDOT":0},{"OBJECT_NAME":"STARLINK-5145","OBJECT_ID":"2022-125AW","EPOCH":"2025-07-29T04:00:13.034592","MEAN_MOTION":15.08848686,"ECCENTRICITY":0.0001303,"INCLINATION":53.2172,"RA_OF_ASC_NODE":127.1976,"ARG_OF_PERICENTER":86.8329,"MEAN_ANOMALY":273.2812,"EPHEMERIS_TYPE":0,"CLASSIFICATION_TYPE":"U","NORAD_CAT_ID":54008,"ELEMENT_SET_NO":999,"REV_AT_EPOCH":15591,"BSTAR":4.6042e-5,"MEAN_MOTION_DOT":4.45e-6,"MEAN_MOTION_DDOT":0},{"OBJECT_NAME":"STARLINK-5099","OBJECT_ID":"2022-125AX","EPOCH":"2025-07-29T03:58:53.604480","MEAN_MOTION":15.08836435,"ECCENTRICITY":0.0001288,"INCLINATION":53.2163,"RA_OF_ASC_NODE":137.1621,"ARG_OF_PERICENTER":85.8028,"MEAN_ANOMALY":274.3111,"EPHEMERIS_TYPE":0,"CLASSIFICATION_TYPE":"U","NORAD_CAT_ID":54009,"ELEMENT_SET_NO":999,"REV_AT_EPOCH":15577,"BSTAR":1.0571e-6,"MEAN_MOTION_DOT":-2.71e-6,"MEAN_MOTION_DDOT":0},{"OBJECT_NAME":"STARLINK-5127","OBJECT_ID":"2022-125AY","EPOCH":"2025-07-29T11:46:32.598912","MEAN_MOTION":15.08838821,"ECCENTRICITY":0.0001437,"INCLINATION":53.2171,"RA_OF_ASC_NODE":125.6736,"ARG_OF_PERICENTER":90.7068,"MEAN_ANOMALY":269.4089,"EPHEMERIS_TYPE":0,"CLASSIFICATION_TYPE":"U","NORAD_CAT_ID":54010,"ELEMENT_SET_NO":999,"REV_AT_EPOCH":15596,"BSTAR":3.0025e-5,"MEAN_MOTION_DOT":1.9e-6,"MEAN_MOTION_DDOT":0},{"OBJECT_NAME":"STARLINK-5124","OBJECT_ID":"2022-125AZ","EPOCH":"2025-07-29T11:30:44.650944","MEAN_MOTION":15.08839211,"ECCENTRICITY":0.0001409,"INCLINATION":53.2171,"RA_OF_ASC_NODE":126.2979,"ARG_OF_PERICENTER":85.7279,"MEAN_ANOMALY":274.3874,"EPHEMERIS_TYPE":0,"CLASSIFICATION_TYPE":"U","NORAD_CAT_ID":54011,"ELEMENT_SET_NO":999,"REV_AT_EPOCH":15595,"BSTAR":4.3809e-5,"MEAN_MOTION_DOT":4.09e-6,"MEAN_MOTION_DDOT":0}]
