STARLINK-5125           
1 53994U 22125AG  25210.19169234 -.00000193  00000+0  59756-5 0  9997
2 53994  53.2170 137.3245 0001419  84.8504 275.2650 15.08840144155798
STARLINK-5097           
1 53995U 22125AH  25210.06657619 -.00000143  00000+0  90939-5 0  9996
2 53995  53.2175 137.9674 0001415  86.6193 273.4961 15.08847483155772
STARLINK-5131           
1 53996U 22125AJ  25210.18800486  .00000640  00000+0  58286-4 0  9991
2 53996  53.2163 137.2976 0001404  99.5713 260.5438 15.08843328155799
STARLINK-5130           
1 53997U 22125AK  25210.15585294  .00000746  00000+0  64943-4 0  9990
2 53997  53.2178 127.8290 0001641  90.4838 269.6342 15.08840165155926
STARLINK-5128           
1 53998U 22125AL  25210.18063576  .00000506  00000+0  49852-4 0  9994
2 53998  53.2165 137.2520 0001334  90.6086 269.5059 15.08844155155792
STARLINK-5079           
1 53999U 22125AM  25210.19538113  .00000272  00000+0  35185-4 0  9994
2 53999  53.2172 137.3466 0001502  86.8821 273.2343 15.08840403155792
STARLINK-5088           
1 54000U 22125AN  25210.15216607  .00000431  00000+0  45133-4 0  9996
2 54000  53.2163 127.8057 0001238  87.9124 272.2010 15.08840790155924
STARLINK-5109           
1 54002U 22125AQ  25210.50539050  .00000018  00000+0  19191-4 0  9993
2 54002  53.2169 125.7731 0001444  92.5828 267.5329 15.08843496155960
STARLINK-5114           
1 54003U 22125AR  25210.18432001  .00000512  00000+0  50258-4 0  9994
2 54003  53.2168 137.2730 0001380  93.0626 267.0524 15.08844925155777
STARLINK-5129           
1 54004U 22125AS  25210.17326508  .00000461  00000+0  47070-4 0  9999
2 54004  53.2170 137.2053 0001332  87.6237 272.4908 15.08844326155774
STARLINK-5135           
1 54005U 22125AT  25210.50814666 -.00000899  00000+0 -38384-4 0  9999
2 54005  53.2169 135.7406 0001307  85.7889 274.3252 15.08849366155820
STARLINK-5096           
1 54006U 22125AU  25210.49341416 -.00000389  00000+0 -63341-5 0  9992
2 54006  53.2173 135.6610 0001500  88.4103 271.7061 15.08839776155829
STARLINK-5132           
1 54007U 22125AV  25210.50079235 -.00002046  00000+0 -11053-3 0  9995
2 54007  53.2179 135.6984 0001226  89.6374 270.4759 15.08827961155821
STARLINK-5145           
1 54008U 22125AW  25210.16681753  .00000445  00000+0  46042-4 0  9998
2 54008  53.2172 127.1976 0001303  86.8329 273.2812 15.08848686155915
STARLINK-5099           
1 54009U 22125AX  25210.16589820 -.00000271  00000+0  10571-5 0  9998
2 54009  53.2163 137.1621 0001288  85.8028 274.3111 15.08836435155778
STARLINK-5127           
1 54010U 22125AY  25210.49065508  .00000190  00000+0  30025-4 0  9992
2 54010  53.2171 125.6736 0001437  90.7068 269.4089 15.08838821155964
STARLINK-5124           
1 54011U 22125AZ  25210.47968346  .00000409  00000+0  43809-4 0  9990
2 54011  53.2171 126.2979 0001409  85.7279 274.3874 15.08839211155958
